[{"OBJECT_NAME":"FLOCK 4BE-22","OBJECT_ID":"2024-149AC","EPOCH":"2026-03-04T03:54:53.042688","MEAN_MOTION":15.37463328,"ECCENTRICITY":0.00027235,"INCLINATION":97.3786,"RA_OF_ASC_NODE":145.9856,"ARG_OF_PERICENTER":287.5242,"MEAN_ANOMALY":72.5705,"EPHEMERIS_TYPE":0,"CLASSIFICATION_TYPE":"U","NORAD_CAT_ID":60494,"ELEMENT_SET_NO":999,"REV_AT_EPOCH":8614,"BSTAR":0.00081239559,"MEAN_MOTION_DOT":0.00029846,"MEAN_MOTION_DDOT":0},{"OBJECT_NAME":"FLOCK 4BE-34","OBJECT_ID":"2024-149AD","EPOCH":"2026-03-04T20:05:04.387776","MEAN_MOTION":15.37780182,"ECCENTRICITY":0.0002257,"INCLINATION":97.383,"RA_OF_ASC_NODE":147.4066,"ARG_OF_PERICENTER":286.6595,"MEAN_ANOMALY":73.4402,"EPHEMERIS_TYPE":0,"CLASSIFICATION_TYPE":"U","NORAD_CAT_ID":60495,"ELEMENT_SET_NO":999,"REV_AT_EPOCH":8627,"BSTAR":0.00059077,"MEAN_MOTION_DOT":0.00021882,"MEAN_MOTION_DDOT":0},{"OBJECT_NAME":"FLOCK 4BE-32","OBJECT_ID":"2024-149AF","EPOCH":"2026-03-04T12:44:53.533824","MEAN_MOTION":15.38211678,"ECCENTRICITY":0.000263,"INCLINATION":97.3774,"RA_OF_ASC_NODE":146.6054,"ARG_OF_PERICENTER":286.0727,"MEAN_ANOMALY":74.0228,"EPHEMERIS_TYPE":0,"CLASSIFICATION_TYPE":"U","NORAD_CAT_ID":60497,"ELEMENT_SET_NO":999,"REV_AT_EPOCH":8622,"BSTAR":0.00070179,"MEAN_MOTION_DOT":0.00026392,"MEAN_MOTION_DDOT":0},{"OBJECT_NAME":"FLOCK 4BE-30","OBJECT_ID":"2024-149AH","EPOCH":"2026-03-04T11:26:24.612000","MEAN_MOTION":15.3803457,"ECCENTRICITY":0.00020277,"INCLINATION":97.3853,"RA_OF_ASC_NODE":147.1087,"ARG_OF_PERICENTER":288.7812,"MEAN_ANOMALY":71.3212,"EPHEMERIS_TYPE":0,"CLASSIFICATION_TYPE":"U","NORAD_CAT_ID":60499,"ELEMENT_SET_NO":999,"REV_AT_EPOCH":8559,"BSTAR":0.00068343538,"MEAN_MOTION_DOT":0.00025548,"MEAN_MOTION_DDOT":0},{"OBJECT_NAME":"FLOCK 4BE-11","OBJECT_ID":"2024-149AK","EPOCH":"2026-03-04T04:36:50.937408","MEAN_MOTION":15.39013801,"ECCENTRICITY":0.0003055,"INCLINATION":97.3757,"RA_OF_ASC_NODE":146.3903,"ARG_OF_PERICENTER":289.955,"MEAN_ANOMALY":70.1366,"EPHEMERIS_TYPE":0,"CLASSIFICATION_TYPE":"U","NORAD_CAT_ID":60501,"ELEMENT_SET_NO":999,"REV_AT_EPOCH":8618,"BSTAR":0.00085105546,"MEAN_MOTION_DOT":0.00032899,"MEAN_MOTION_DDOT":0},{"OBJECT_NAME":"FLOCK 4BE-24","OBJECT_ID":"2024-149AP","EPOCH":"2026-03-04T15:05:06.506592","MEAN_MOTION":15.38903826,"ECCENTRICITY":0.0002904,"INCLINATION":97.377,"RA_OF_ASC_NODE":147.0756,"ARG_OF_PERICENTER":297.2699,"MEAN_ANOMALY":62.825,"EPHEMERIS_TYPE":0,"CLASSIFICATION_TYPE":"U","NORAD_CAT_ID":60505,"ELEMENT_SET_NO":999,"REV_AT_EPOCH":8626,"BSTAR":0.00070891,"MEAN_MOTION_DOT":0.00027271,"MEAN_MOTION_DDOT":0},{"OBJECT_NAME":"TANAGER-1","OBJECT_ID":"2024-149AR","EPOCH":"2026-03-04T05:56:41.367264","MEAN_MOTION":15.43636846,"ECCENTRICITY":0.00067338,"INCLINATION":97.3773,"RA_OF_ASC_NODE":156.5482,"ARG_OF_PERICENTER":216.0341,"MEAN_ANOMALY":144.0453,"EPHEMERIS_TYPE":0,"CLASSIFICATION_TYPE":"U","NORAD_CAT_ID":60507,"ELEMENT_SET_NO":999,"REV_AT_EPOCH":8684,"BSTAR":0.00014009977,"MEAN_MOTION_DOT":6.222e-5,"MEAN_MOTION_DDOT":0},{"OBJECT_NAME":"FLOCK 4BE-29","OBJECT_ID":"2024-149AT","EPOCH":"2026-03-04T15:49:32.282688","MEAN_MOTION":15.40172915,"ECCENTRICITY":0.0001928,"INCLINATION":97.3855,"RA_OF_ASC_NODE":148.238,"ARG_OF_PERICENTER":315.8758,"MEAN_ANOMALY":44.2334,"EPHEMERIS_TYPE":0,"CLASSIFICATION_TYPE":"U","NORAD_CAT_ID":60509,"ELEMENT_SET_NO":999,"REV_AT_EPOCH":8630,"BSTAR":0.00074713,"MEAN_MOTION_DOT":0.00029975,"MEAN_MOTION_DDOT":0},{"OBJECT_NAME":"FLOCK 4BE-2","OBJECT_ID":"2024-149AV","EPOCH":"2026-03-04T15:15:28.654848","MEAN_MOTION":15.42673859,"ECCENTRICITY":0.0002654,"INCLINATION":97.3858,"RA_OF_ASC_NODE":148.7735,"ARG_OF_PERICENTER":296.9056,"MEAN_ANOMALY":63.192,"EPHEMERIS_TYPE":0,"CLASSIFICATION_TYPE":"U","NORAD_CAT_ID":60511,"ELEMENT_SET_NO":999,"REV_AT_EPOCH":8633,"BSTAR":0.0013828,"MEAN_MOTION_DOT":0.00060591,"MEAN_MOTION_DDOT":0},{"OBJECT_NAME":"FLOCK 4BE-13","OBJECT_ID":"2024-149AW","EPOCH":"2026-03-04T15:12:42.675264","MEAN_MOTION":15.3859109,"ECCENTRICITY":0.0003449,"INCLINATION":97.3769,"RA_OF_ASC_NODE":147.1841,"ARG_OF_PERICENTER":288.007,"MEAN_ANOMALY":72.0799,"EPHEMERIS_TYPE":0,"CLASSIFICATION_TYPE":"U","NORAD_CAT_ID":60512,"ELEMENT_SET_NO":999,"REV_AT_EPOCH":8627,"BSTAR":0.00067237,"MEAN_MOTION_DOT":0.00025595,"MEAN_MOTION_DDOT":0},{"OBJECT_NAME":"FLOCK 4BE-27","OBJECT_ID":"2024-149AX","EPOCH":"2026-03-04T15:51:03.718080","MEAN_MOTION":15.32456422,"ECCENTRICITY":0.0002973,"INCLINATION":97.3878,"RA_OF_ASC_NODE":145.5942,"ARG_OF_PERICENTER":331.7354,"MEAN_ANOMALY":28.3726,"EPHEMERIS_TYPE":0,"CLASSIFICATION_TYPE":"U","NORAD_CAT_ID":60513,"ELEMENT_SET_NO":999,"REV_AT_EPOCH":8612,"BSTAR":0.00047139,"MEAN_MOTION_DOT":0.00014709,"MEAN_MOTION_DDOT":0},{"OBJECT_NAME":"FLOCK 4BE-9","OBJECT_ID":"2024-149AY","EPOCH":"2026-03-04T05:23:35.212704","MEAN_MOTION":15.37359515,"ECCENTRICITY":0.00017014,"INCLINATION":97.3842,"RA_OF_ASC_NODE":146.7258,"ARG_OF_PERICENTER":329.8816,"MEAN_ANOMALY":30.233,"EPHEMERIS_TYPE":0,"CLASSIFICATION_TYPE":"U","NORAD_CAT_ID":60514,"ELEMENT_SET_NO":999,"REV_AT_EPOCH":8617,"BSTAR":0.00071896269,"MEAN_MOTION_DOT":0.00026302,"MEAN_MOTION_DDOT":0},{"OBJECT_NAME":"FLOCK 4BE-6","OBJECT_ID":"2024-149BA","EPOCH":"2026-03-04T15:15:28.295424","MEAN_MOTION":15.3642186,"ECCENTRICITY":0.0002322,"INCLINATION":97.3843,"RA_OF_ASC_NODE":146.6715,"ARG_OF_PERICENTER":316.2539,"MEAN_ANOMALY":43.8521,"EPHEMERIS_TYPE":0,"CLASSIFICATION_TYPE":"U","NORAD_CAT_ID":60516,"ELEMENT_SET_NO":999,"REV_AT_EPOCH":8620,"BSTAR":0.00063282,"MEAN_MOTION_DOT":0.00022442,"MEAN_MOTION_DDOT":0},{"OBJECT_NAME":"FLOCK 4BE-14","OBJECT_ID":"2024-149BB","EPOCH":"2026-03-04T15:18:27.398304","MEAN_MOTION":15.37461269,"ECCENTRICITY":0.000325,"INCLINATION":97.3756,"RA_OF_ASC_NODE":146.7438,"ARG_OF_PERICENTER":312.7771,"MEAN_ANOMALY":47.32,"EPHEMERIS_TYPE":0,"CLASSIFICATION_TYPE":"U","NORAD_CAT_ID":60517,"ELEMENT_SET_NO":999,"REV_AT_EPOCH":8624,"BSTAR":0.00063173,"MEAN_MOTION_DOT":0.0002317,"MEAN_MOTION_DDOT":0},{"OBJECT_NAME":"FLOCK 4BE-1","OBJECT_ID":"2024-149BC","EPOCH":"2026-03-04T04:02:26.769696","MEAN_MOTION":15.38702415,"ECCENTRICITY":0.00031268,"INCLINATION":97.3831,"RA_OF_ASC_NODE":147.2007,"ARG_OF_PERICENTER":310.6203,"MEAN_ANOMALY":49.477,"EPHEMERIS_TYPE":0,"CLASSIFICATION_TYPE":"U","NORAD_CAT_ID":60518,"ELEMENT_SET_NO":999,"REV_AT_EPOCH":8620,"BSTAR":0.00076767597,"MEAN_MOTION_DOT":0.00029354,"MEAN_MOTION_DDOT":0},{"OBJECT_NAME":"FLOCK 4BE-28","OBJECT_ID":"2024-149BD","EPOCH":"2026-03-04T15:45:23.158656","MEAN_MOTION":15.40732215,"ECCENTRICITY":0.0003488,"INCLINATION":97.3792,"RA_OF_ASC_NODE":148.1125,"ARG_OF_PERICENTER":307.7447,"MEAN_ANOMALY":52.3483,"EPHEMERIS_TYPE":0,"CLASSIFICATION_TYPE":"U","NORAD_CAT_ID":60519,"ELEMENT_SET_NO":999,"REV_AT_EPOCH":8632,"BSTAR":0.00072807,"MEAN_MOTION_DOT":0.00029754,"MEAN_MOTION_DDOT":0}]
