FLOCK 4BE-22            
1 60494U 24149AC  26063.16311392  .00029846  00000+0  81240-3 0  9992
2 60494  97.3786 145.9856 0002723 287.5242  72.5705 15.37463328 86144
FLOCK 4BE-34            
1 60495U 24149AD  26063.83685634  .00021882  00000+0  59077-3 0  9995
2 60495  97.3830 147.4066 0002257 286.6595  73.4402 15.37780182 86276
FLOCK 4BE-32            
1 60497U 24149AF  26063.53117516  .00026392  00000+0  70179-3 0  9990
2 60497  97.3774 146.6054 0002630 286.0727  74.0228 15.38211678 86227
FLOCK 4BE-30            
1 60499U 24149AH  26063.47667375  .00025548  00000+0  68344-3 0  9991
2 60499  97.3853 147.1087 0002027 288.7812  71.3212 15.38034570 85599
FLOCK 4BE-11            
1 60501U 24149AK  26063.19225622  .00032899  00000+0  85106-3 0  9991
2 60501  97.3757 146.3903 0003055 289.9550  70.1366 15.39013801 86186
FLOCK 4BE-24            
1 60505U 24149AP  26063.62854753  .00027271  00000+0  70891-3 0  9999
2 60505  97.3770 147.0756 0002904 297.2699  62.8250 15.38903826 86260
TANAGER-1               
1 60507U 24149AR  26063.24770101  .00006222  00000+0  14010-3 0  9997
2 60507  97.3773 156.5482 0006733 216.0341 144.0453 15.43636846 86846
FLOCK 4BE-29            
1 60509U 24149AT  26063.65940142  .00029975  00000+0  74713-3 0  9994
2 60509  97.3855 148.2380 0001928 315.8758  44.2334 15.40172915 86304
FLOCK 4BE-2             
1 60511U 24149AV  26063.63574832  .00060591  00000+0  13828-2 0  9992
2 60511  97.3858 148.7735 0002654 296.9056  63.1920 15.42673859 86335
FLOCK 4BE-13            
1 60512U 24149AW  26063.63382726  .00025595  00000+0  67237-3 0  9991
2 60512  97.3769 147.1841 0003449 288.0070  72.0799 15.38591090 86276
FLOCK 4BE-27            
1 60513U 24149AX  26063.66045970  .00014709  00000+0  47139-3 0  9996
2 60513  97.3878 145.5942 0002973 331.7354  28.3726 15.32456422 86125
FLOCK 4BE-9             
1 60514U 24149AY  26063.22471311  .00026302  00000+0  71896-3 0  9990
2 60514  97.3842 146.7258 0001701 329.8816  30.2330 15.37359515 86177
FLOCK 4BE-6             
1 60516U 24149BA  26063.63574416  .00022442  00000+0  63282-3 0  9998
2 60516  97.3843 146.6715 0002322 316.2539  43.8521 15.36421860 86207
FLOCK 4BE-14            
1 60517U 24149BB  26063.63781711  .00023170  00000+0  63173-3 0  9995
2 60517  97.3756 146.7438 0003250 312.7771  47.3200 15.37461269 86249
FLOCK 4BE-1             
1 60518U 24149BC  26063.16836539  .00029354  00000+0  76768-3 0  9997
2 60518  97.3831 147.2007 0003126 310.6203  49.4770 15.38702415 86204
FLOCK 4BE-28            
1 60519U 24149BD  26063.65651804  .00029754  00000+0  72807-3 0  9996
2 60519  97.3792 148.1125 0003488 307.7447  52.3483 15.40732215 86321
